STARLINK-31909          
1 59663U 24084K   25270.32673143  .00005642  00000+0  21432-3 0  9993
2 59663  43.0020 244.0258 0000918 272.8724  87.2022 15.27592455 79399
STARLINK-31910          
1 59664U 24084L   25270.34085975  .00009334  00000+0  34814-3 0  9996
2 59664  42.9974 244.0772 0000775 263.1489  96.9274 15.27594150 79399
STARLINK-31902          
1 59666U 24084N   25271.03070375  .00010189  00000+0  37921-3 0  9995
2 59666  43.0016 240.6609 0001517 247.4155 112.6536 15.27584945 79490
STARLINK-31913          
1 59667U 24084P   25271.25802977 -.00000460  00000+0 -71718-5 0  9998
2 59667  43.0014 235.4644 0001343 264.9329  95.1370 15.27596345 79571
STARLINK-31866          
1 59668U 24084Q   25270.38794000  .00002740  00000+0  10906-3 0  9990
2 59668  42.9994 236.6375 0000235 287.7489  72.3336 15.27572257 79485
STARLINK-31917          
1 59669U 24084R   25270.94733359  .00001336  00000+0  58067-4 0  9994
2 59669  42.9963 240.8892 0000574 296.6270  63.4523 15.27574407 79484
STARLINK-31860          
1 59670U 24084S   25271.27217535  .00001370  00000+0  59295-4 0  9998
2 59670  42.9974 235.5676 0000684 261.6046  98.4728 15.27581198 79552
STARLINK-31854          
1 59671U 24084T   25270.18208968  .00002970  00000+0  11735-3 0  9991
2 59671  43.0048 212.1713 0001674 273.9260  86.1400 15.27592944 79725
STARLINK-31842          
1 59672U 24084U   25270.95295608 -.00000820  00000+0 -20297-4 0  9992
2 59672  43.0031 237.4734 0000853 288.8115  71.2644 15.27574856 79528
STARLINK-31871          
1 59673U 24084V   25271.26655577  .00004999  00000+0  19116-3 0  9999
2 59673  42.9972 238.9797 0000270 227.3910 132.6919 15.27561993 79536
STARLINK-31875          
1 59674U 24084W   25271.00292566 -.00000829  00000+0 -20611-4 0  9990
2 59674  42.9974 236.9854 0001097 275.4726  84.6001 15.27571850 79539
STARLINK-31877          
1 59675U 24084X   25270.36655210  .00006378  00000+0  24097-3 0  9992
2 59675  43.0048 244.2683 0001835 267.8697  92.1945 15.27596670 79390
STARLINK-31884          
1 59676U 24084Y   25271.27041044  .00000647  00000+0  33007-4 0  9993
2 59676  42.9979 239.0347 0000415 262.8056  97.2748 15.27580857 79531
STARLINK-32108          
1 59682U 24086A   25270.96638265  .00001714  00000+0  71788-4 0  9998
2 59682  43.0045 262.4806 0001727 283.8914  76.1746 15.27580978 79175
STARLINK-32080          
1 59683U 24086B   25271.05361686 -.00000267  00000+0 -18357-6 0  9999
2 59683  42.9998 262.2761 0001027 249.7555 110.3187 15.27582910 79206
STARLINK-32091          
1 59684U 24086C   25270.45101818 -.00001215  00000+0 -34610-4 0  9994
2 59684  43.0000 254.2798 0001221 274.7705  85.3007 15.27592249 79247
