[{"OBJECT_NAME":"STARLINK-31909","OBJECT_ID":"2024-084K","EPOCH":"2025-09-27T07:50:29.595552","MEAN_MOTION":15.27592455,"ECCENTRICITY":9.185e-5,"INCLINATION":43.002,"RA_OF_ASC_NODE":244.0258,"ARG_OF_PERICENTER":272.8724,"MEAN_ANOMALY":87.2022,"EPHEMERIS_TYPE":0,"CLASSIFICATION_TYPE":"U","NORAD_CAT_ID":59663,"ELEMENT_SET_NO":999,"REV_AT_EPOCH":7939,"BSTAR":0.00021432059,"MEAN_MOTION_DOT":5.642e-5,"MEAN_MOTION_DDOT":0},{"OBJECT_NAME":"STARLINK-31910","OBJECT_ID":"2024-084L","EPOCH":"2025-09-27T08:10:50.282400","MEAN_MOTION":15.2759415,"ECCENTRICITY":7.755e-5,"INCLINATION":42.9974,"RA_OF_ASC_NODE":244.0772,"ARG_OF_PERICENTER":263.1489,"MEAN_ANOMALY":96.9274,"EPHEMERIS_TYPE":0,"CLASSIFICATION_TYPE":"U","NORAD_CAT_ID":59664,"ELEMENT_SET_NO":999,"REV_AT_EPOCH":7939,"BSTAR":0.0003481387,"MEAN_MOTION_DOT":9.334e-5,"MEAN_MOTION_DDOT":0},{"OBJECT_NAME":"STARLINK-31902","OBJECT_ID":"2024-084N","EPOCH":"2025-09-28T00:44:12.804000","MEAN_MOTION":15.27584945,"ECCENTRICITY":0.00015171,"INCLINATION":43.0016,"RA_OF_ASC_NODE":240.6609,"ARG_OF_PERICENTER":247.4155,"MEAN_ANOMALY":112.6536,"EPHEMERIS_TYPE":0,"CLASSIFICATION_TYPE":"U","NORAD_CAT_ID":59666,"ELEMENT_SET_NO":999,"REV_AT_EPOCH":7949,"BSTAR":0.00037921183,"MEAN_MOTION_DOT":0.00010189,"MEAN_MOTION_DDOT":0},{"OBJECT_NAME":"STARLINK-31913","OBJECT_ID":"2024-084P","EPOCH":"2025-09-28T06:11:33.772128","MEAN_MOTION":15.27596345,"ECCENTRICITY":0.00013435,"INCLINATION":43.0014,"RA_OF_ASC_NODE":235.4644,"ARG_OF_PERICENTER":264.9329,"MEAN_ANOMALY":95.137,"EPHEMERIS_TYPE":0,"CLASSIFICATION_TYPE":"U","NORAD_CAT_ID":59667,"ELEMENT_SET_NO":999,"REV_AT_EPOCH":7957,"BSTAR":-7.171768e-6,"MEAN_MOTION_DOT":-4.6e-6,"MEAN_MOTION_DDOT":0},{"OBJECT_NAME":"STARLINK-31866","OBJECT_ID":"2024-084Q","EPOCH":"2025-09-27T09:18:38.016000","MEAN_MOTION":15.27572257,"ECCENTRICITY":2.356e-5,"INCLINATION":42.9994,"RA_OF_ASC_NODE":236.6375,"ARG_OF_PERICENTER":287.7489,"MEAN_ANOMALY":72.3336,"EPHEMERIS_TYPE":0,"CLASSIFICATION_TYPE":"U","NORAD_CAT_ID":59668,"ELEMENT_SET_NO":999,"REV_AT_EPOCH":7948,"BSTAR":0.00010906314,"MEAN_MOTION_DOT":2.74e-5,"MEAN_MOTION_DDOT":0},{"OBJECT_NAME":"STARLINK-31917","OBJECT_ID":"2024-084R","EPOCH":"2025-09-27T22:44:09.622176","MEAN_MOTION":15.27574407,"ECCENTRICITY":5.747e-5,"INCLINATION":42.9963,"RA_OF_ASC_NODE":240.8892,"ARG_OF_PERICENTER":296.627,"MEAN_ANOMALY":63.4523,"EPHEMERIS_TYPE":0,"CLASSIFICATION_TYPE":"U","NORAD_CAT_ID":59669,"ELEMENT_SET_NO":999,"REV_AT_EPOCH":7948,"BSTAR":5.8067405e-5,"MEAN_MOTION_DOT":1.336e-5,"MEAN_MOTION_DDOT":0},{"OBJECT_NAME":"STARLINK-31860","OBJECT_ID":"2024-084S","EPOCH":"2025-09-28T06:31:55.950240","MEAN_MOTION":15.27581198,"ECCENTRICITY":6.848e-5,"INCLINATION":42.9974,"RA_OF_ASC_NODE":235.5676,"ARG_OF_PERICENTER":261.6046,"MEAN_ANOMALY":98.4728,"EPHEMERIS_TYPE":0,"CLASSIFICATION_TYPE":"U","NORAD_CAT_ID":59670,"ELEMENT_SET_NO":999,"REV_AT_EPOCH":7955,"BSTAR":5.9294809e-5,"MEAN_MOTION_DOT":1.37e-5,"MEAN_MOTION_DDOT":0},{"OBJECT_NAME":"STARLINK-31854","OBJECT_ID":"2024-084T","EPOCH":"2025-09-27T04:22:12.548352","MEAN_MOTION":15.27592944,"ECCENTRICITY":0.0001674,"INCLINATION":43.0048,"RA_OF_ASC_NODE":212.1713,"ARG_OF_PERICENTER":273.926,"MEAN_ANOMALY":86.14,"EPHEMERIS_TYPE":0,"CLASSIFICATION_TYPE":"U","NORAD_CAT_ID":59671,"ELEMENT_SET_NO":999,"REV_AT_EPOCH":7972,"BSTAR":0.00011735257,"MEAN_MOTION_DOT":2.97e-5,"MEAN_MOTION_DDOT":0},{"OBJECT_NAME":"STARLINK-31842","OBJECT_ID":"2024-084U","EPOCH":"2025-09-27T22:52:15.405312","MEAN_MOTION":15.27574856,"ECCENTRICITY":8.532e-5,"INCLINATION":43.0031,"RA_OF_ASC_NODE":237.4734,"ARG_OF_PERICENTER":288.8115,"MEAN_ANOMALY":71.2644,"EPHEMERIS_TYPE":0,"CLASSIFICATION_TYPE":"U","NORAD_CAT_ID":59672,"ELEMENT_SET_NO":999,"REV_AT_EPOCH":7952,"BSTAR":-2.0296646e-5,"MEAN_MOTION_DOT":-8.2e-6,"MEAN_MOTION_DDOT":0},{"OBJECT_NAME":"STARLINK-31871","OBJECT_ID":"2024-084V","EPOCH":"2025-09-28T06:23:50.418528","MEAN_MOTION":15.27561993,"ECCENTRICITY":2.705e-5,"INCLINATION":42.9972,"RA_OF_ASC_NODE":238.9797,"ARG_OF_PERICENTER":227.391,"MEAN_ANOMALY":132.6919,"EPHEMERIS_TYPE":0,"CLASSIFICATION_TYPE":"U","NORAD_CAT_ID":59673,"ELEMENT_SET_NO":999,"REV_AT_EPOCH":7953,"BSTAR":0.00019116094,"MEAN_MOTION_DOT":4.999e-5,"MEAN_MOTION_DDOT":0},{"OBJECT_NAME":"STARLINK-31875","OBJECT_ID":"2024-084W","EPOCH":"2025-09-28T00:04:12.777024","MEAN_MOTION":15.2757185,"ECCENTRICITY":0.00010973,"INCLINATION":42.9974,"RA_OF_ASC_NODE":236.9854,"ARG_OF_PERICENTER":275.4726,"MEAN_ANOMALY":84.6001,"EPHEMERIS_TYPE":0,"CLASSIFICATION_TYPE":"U","NORAD_CAT_ID":59674,"ELEMENT_SET_NO":999,"REV_AT_EPOCH":7953,"BSTAR":-2.0611273e-5,"MEAN_MOTION_DOT":-8.29e-6,"MEAN_MOTION_DDOT":0},{"OBJECT_NAME":"STARLINK-31877","OBJECT_ID":"2024-084X","EPOCH":"2025-09-27T08:47:50.101440","MEAN_MOTION":15.2759667,"ECCENTRICITY":0.0001835,"INCLINATION":43.0048,"RA_OF_ASC_NODE":244.2683,"ARG_OF_PERICENTER":267.8697,"MEAN_ANOMALY":92.1945,"EPHEMERIS_TYPE":0,"CLASSIFICATION_TYPE":"U","NORAD_CAT_ID":59675,"ELEMENT_SET_NO":999,"REV_AT_EPOCH":7939,"BSTAR":0.00024097286,"MEAN_MOTION_DOT":6.378e-5,"MEAN_MOTION_DDOT":0},{"OBJECT_NAME":"STARLINK-31884","OBJECT_ID":"2024-084Y","EPOCH":"2025-09-28T06:29:23.462016","MEAN_MOTION":15.27580857,"ECCENTRICITY":4.15e-5,"INCLINATION":42.9979,"RA_OF_ASC_NODE":239.0347,"ARG_OF_PERICENTER":262.8056,"MEAN_ANOMALY":97.2748,"EPHEMERIS_TYPE":0,"CLASSIFICATION_TYPE":"U","NORAD_CAT_ID":59676,"ELEMENT_SET_NO":999,"REV_AT_EPOCH":7953,"BSTAR":3.3007239e-5,"MEAN_MOTION_DOT":6.47e-6,"MEAN_MOTION_DDOT":0},{"OBJECT_NAME":"STARLINK-32108","OBJECT_ID":"2024-086A","EPOCH":"2025-09-27T23:11:35.460960","MEAN_MOTION":15.27580978,"ECCENTRICITY":0.00017276,"INCLINATION":43.0045,"RA_OF_ASC_NODE":262.4806,"ARG_OF_PERICENTER":283.8914,"MEAN_ANOMALY":76.1746,"EPHEMERIS_TYPE":0,"CLASSIFICATION_TYPE":"U","NORAD_CAT_ID":59682,"ELEMENT_SET_NO":999,"REV_AT_EPOCH":7917,"BSTAR":7.1787998e-5,"MEAN_MOTION_DOT":1.714e-5,"MEAN_MOTION_DDOT":0},{"OBJECT_NAME":"STARLINK-32080","OBJECT_ID":"2024-086B","EPOCH":"2025-09-28T01:17:12.496704","MEAN_MOTION":15.2758291,"ECCENTRICITY":0.00010279,"INCLINATION":42.9998,"RA_OF_ASC_NODE":262.2761,"ARG_OF_PERICENTER":249.7555,"MEAN_ANOMALY":110.3187,"EPHEMERIS_TYPE":0,"CLASSIFICATION_TYPE":"U","NORAD_CAT_ID":59683,"ELEMENT_SET_NO":999,"REV_AT_EPOCH":7920,"BSTAR":-1.83569e-7,"MEAN_MOTION_DOT":-2.67e-6,"MEAN_MOTION_DDOT":0},{"OBJECT_NAME":"STARLINK-32091","OBJECT_ID":"2024-086C","EPOCH":"2025-09-27T10:49:27.970752","MEAN_MOTION":15.27592249,"ECCENTRICITY":0.00012215,"INCLINATION":43,"RA_OF_ASC_NODE":254.2798,"ARG_OF_PERICENTER":274.7705,"MEAN_ANOMALY":85.3007,"EPHEMERIS_TYPE":0,"CLASSIFICATION_TYPE":"U","NORAD_CAT_ID":59684,"ELEMENT_SET_NO":999,"REV_AT_EPOCH":7924,"BSTAR":-3.4609592e-5,"MEAN_MOTION_DOT":-1.215e-5,"MEAN_MOTION_DDOT":0}]
